{"metapnc_g_1391": {"lng": "-0.12574", "geonameId": 2643743, "name": "London", "lat": "51.50853", "wikidataId": "Q84", "partition": null, "id": "metapnc_g_1391"}, "metapnc_g_1392": {"lng": "23.25196", "geonameId": 753866, "name": "Zamoœæ", "lat": "50.72314", "wikidataId": "Q145972", "partition": "metapnc_z_1571", "id": "metapnc_g_1392"}, "metapnc_g_1393": {"lng": "19.0678", "geonameId": 3081741, "name": "W³oc³awek", "lat": "52.64817", "wikidataId": "Q49295185", "partition": "metapnc_z_1571", "id": "metapnc_g_1393"}, "metapnc_g_1394": {"lng": "9.18951", "geonameId": 3173435, "name": "Milan", "lat": "45.46427", "wikidataId": "Q49295412", "partition": null, "id": "metapnc_g_1394"}, "metapnc_g_1395": {"lng": "30.5238", "geonameId": 703448, "name": "Kyiv", "lat": "50.45466", "wikidataId": "Q1899", "partition": null, "id": "metapnc_g_1395"}, "metapnc_g_1396": {"lng": "18.00762", "geonameId": 3102014, "name": "Bydgoszcz", "lat": "53.1235", "wikidataId": "Q41252", "partition": "metapnc_z_1570", "id": "metapnc_g_1396"}, "metapnc_g_1397": {"lng": "18.59814", "geonameId": 3083271, "name": "Torun", "lat": "53.01375", "wikidataId": "Q33507186", "partition": "metapnc_z_1570", "id": "metapnc_g_1397"}, "metapnc_g_1398": {"lng": "16.92993", "geonameId": 3088171, "name": "Poznan", "lat": "52.40692", "wikidataId": "Q268", "partition": "metapnc_z_1570", "id": "metapnc_g_1398"}, "metapnc_g_1399": {"lng": "12.37129", "geonameId": 2879139, "name": "Leipzig", "lat": "51.33962", "wikidataId": "Q2079", "partition": null, "id": "metapnc_g_1399"}, "metapnc_g_1400": {"lng": "13.73832", "geonameId": 2935022, "name": "Dresden", "lat": "51.05089", "wikidataId": "Q1731", "partition": null, "id": "metapnc_g_1400"}, "metapnc_g_1401": {"lng": "18.75366", "geonameId": 3098218, "name": "Grudzi¹dz", "lat": "53.48411", "wikidataId": "Q123511", "partition": "metapnc_z_1570", "id": "metapnc_g_1401"}, "metapnc_g_1402": {"lng": "23.64806", "geonameId": 708313, "name": "Horodok", "lat": "49.78465", "wikidataId": "Q930449", "partition": "metapnc_z_1569", "id": "metapnc_g_1402"}, "metapnc_g_1403": {"lng": "19.93658", "geonameId": 3094802, "name": "Krakow", "lat": "50.06143", "wikidataId": "Q31487", "partition": "metapnc_z_1569", "id": "metapnc_g_1403"}, "metapnc_g_1404": {"lng": "17.71992", "geonameId": 3080047, "name": "¯nin", "lat": "52.84958", "wikidataId": "Q324941", "partition": "metapnc_z_1570", "id": "metapnc_g_1404"}, "metapnc_g_1405": {"lng": "19.70321", "geonameId": 3088972, "name": "Piotrkow Trybunalski", "lat": "51.40547", "wikidataId": "Q158004", "partition": "metapnc_z_1571", "id": "metapnc_g_1405"}, "metapnc_g_1406": {"lng": "20.98698", "geonameId": 757026, "name": "Tarnów", "lat": "50.01381", "wikidataId": "Q106281", "partition": "metapnc_z_1569", "id": "metapnc_g_1406"}, "metapnc_g_1407": {"lng": "13.41053", "geonameId": 2950159, "name": "Berlin", "lat": "52.52437", "wikidataId": "Q64", "partition": null, "id": "metapnc_g_1407"}, "metapnc_g_1408": {"lng": "19.94885", "geonameId": 3080866, "name": "Zakopane", "lat": "49.29899", "wikidataId": "Q144786", "partition": "metapnc_z_1569", "id": "metapnc_g_1408"}, "metapnc_g_1409": {"lng": "24.02324", "geonameId": 702550, "name": "Lviv", "lat": "49.83826", "wikidataId": "Q36036", "partition": "metapnc_z_1569", "id": "metapnc_g_1409"}, "metapnc_g_1410": {"lng": "22.76728", "geonameId": 761168, "name": "Przemyœl", "lat": "49.78498", "wikidataId": "Q208473", "partition": "metapnc_z_1569", "id": "metapnc_g_1410"}, "metapnc_g_1411": {"lng": "25.2798", "geonameId": 593116, "name": "Vilnius", "lat": "54.68916", "wikidataId": "Q216", "partition": "metapnc_z_1571", "id": "metapnc_g_1411"}, "metapnc_g_1412": {"lng": "21.01178", "geonameId": 756135, "name": "Warsaw", "lat": "52.22977", "wikidataId": "Q270", "partition": "metapnc_z_1571", "id": "metapnc_g_1412"}, "metapnc_g_1413": {"lng": "19.02754", "geonameId": 3096472, "name": "Katowice", "lat": "50.25841", "wikidataId": "Q588", "partition": null, "id": "metapnc_g_1413"}, "metapnc_g_1414": {"lng": "30.31413", "geonameId": 498817, "name": "St Petersburg", "lat": "59.93863", "wikidataId": "Q656", "partition": null, "id": "metapnc_g_1414"}, "metapnc_g_1415": {"lng": "22.05935", "geonameId": 766027, "name": "£om¿a", "lat": "53.17806", "wikidataId": "Q215633", "partition": "metapnc_z_1571", "id": "metapnc_g_1415"}, "metapnc_g_1416": {"lng": "37.61556", "geonameId": 524901, "name": "Moscow", "lat": "55.75222", "wikidataId": "Q649", "partition": null, "id": "metapnc_g_1416"}, "metapnc_g_1417": {"lng": "24.90056", "geonameId": 686896, "name": "Zolochiv", "lat": "49.80755", "wikidataId": "Q623594", "partition": "metapnc_z_1569", "id": "metapnc_g_1417"}, "metapnc_g_1418": {"lng": "16.37208", "geonameId": 2761369, "name": "Vienna", "lat": "48.20849", "wikidataId": "Q1741", "partition": null, "id": "metapnc_g_1418"}, "metapnc_g_1419": {"lng": "19.12409", "geonameId": 3100946, "name": "Czêstochowa", "lat": "50.79646", "wikidataId": "Q103217", "partition": "metapnc_z_1571", "id": "metapnc_g_1419"}, "metapnc_g_1420": {"lng": "18.4251", "geonameId": 3101795, "name": "Che³mno", "lat": "53.34855", "wikidataId": "Q34792938", "partition": "metapnc_z_1570", "id": "metapnc_g_1420"}, "metapnc_g_1421": {"lng": "-58.37723", "geonameId": 3435910, "name": "Buenos Aires", "lat": "-34.61315", "wikidataId": "Q1486", "partition": null, "id": "metapnc_g_1421"}, "metapnc_g_1422": {"lng": "16.23929", "geonameId": 3092874, "name": "Luboczeœnica", "lat": "52.52988", "wikidataId": "Q6695479", "partition": "metapnc_z_1570", "id": "metapnc_g_1422"}, "metapnc_g_1423": {"lng": "22.56667", "geonameId": 765876, "name": "Lublin", "lat": "51.25", "wikidataId": "Q37333", "partition": "metapnc_z_1571", "id": "metapnc_g_1423"}, "metapnc_g_1424": {"lng": "17.58259", "geonameId": 3099112, "name": "Gniezno", "lat": "52.53481", "wikidataId": "Q51432", "partition": "metapnc_z_1570", "id": "metapnc_g_1424"}, "metapnc_g_1425": {"lng": "4.34878", "geonameId": 2800866, "name": "Brussels", "lat": "50.85045", "wikidataId": "Q239", "partition": null, "id": "metapnc_g_1425"}, "metapnc_g_1426": {"lng": "23.18647", "geonameId": 775986, "name": "Bielsk Podlaski", "lat": "52.76512", "wikidataId": "Q31915744", "partition": "metapnc_z_1571", "id": "metapnc_g_1426"}, "metapnc_g_1427": {"lng": "-87.65005", "geonameId": 4887398, "name": "Chicago", "lat": "41.85003", "wikidataId": "Q1297", "partition": null, "id": "metapnc_g_1427"}, "metapnc_g_1428": {"lng": "-74.00597", "geonameId": 5128581, "name": "New York", "lat": "40.71427", "wikidataId": "Q60", "partition": null, "id": "metapnc_g_1428"}, "metapnc_g_1429": {"lng": "18.26387", "geonameId": 3097872, "name": "Inowroc³aw", "lat": "52.79886", "wikidataId": "Q378821", "partition": "metapnc_z_1570", "id": "metapnc_g_1429"}, "metapnc_g_1430": {"lng": "14.42076", "geonameId": 3067696, "name": "Prague", "lat": "50.08804", "wikidataId": "Q1085", "partition": null, "id": "metapnc_g_1430"}, "metapnc_g_1431": {"lng": "16.64866", "geonameId": 3095151, "name": "Koœcian", "lat": "52.08829", "wikidataId": "Q52889", "partition": "metapnc_z_1570", "id": "metapnc_g_1431"}, "metapnc_g_1432": {"lng": "18.9041", "geonameId": 3091831, "name": "Miko³ów", "lat": "50.17103", "wikidataId": "Q659905", "partition": "metapnc_z_1570", "id": "metapnc_g_1432"}, "metapnc_g_1433": {"lng": "19.47395", "geonameId": 3093133, "name": "Lodz", "lat": "51.77058", "wikidataId": "Q580", "partition": "metapnc_z_1571", "id": "metapnc_g_1433"}, "metapnc_g_1434": {"lng": "18.64912", "geonameId": 3099434, "name": "Gdansk", "lat": "54.35227", "wikidataId": "Q1792", "partition": "metapnc_z_1570", "id": "metapnc_g_1434"}, "metapnc_g_1435": {"lng": "18.93282", "geonameId": 3101950, "name": "Bytom", "lat": "50.34802", "wikidataId": "Q102350", "partition": null, "id": "metapnc_g_1435"}, "metapnc_g_1436": {"lng": "21.54848", "geonameId": 758416, "name": "Stanis³awów", "lat": "52.28937", "wikidataId": "Q2114006", "partition": "metapnc_z_1569", "id": "metapnc_g_1436"}, "metapnc_g_1437": {"lng": "24.457777777778", "geonameId": null, "name": "Czerniów", "lat": "49.2775", "wikidataId": "Q1717807", "partition": "metapnc_z_1569", "id": "metapnc_g_1437"}, "metapnc_g_1438": {"lng": "27.561837", "geonameId": 625143, "name": "Miñsk", "lat": "53.902246", "wikidataId": "Q2280", "partition": "metapnc_z_1571", "id": "metapnc_g_1438"}, "metapnc_g_1439": {"lng": "23.32222222", "geonameId": 694863, "name": "Rejon samborski", "lat": "49.55111111", "wikidataId": "Q2599721", "partition": "metapnc_z_1569", "id": "metapnc_g_1439"}, "metapnc_g_1440": {"lng": "22.0", "geonameId": 7530819, "name": "Rzeszów", "lat": "50.05", "wikidataId": "Q598", "partition": "metapnc_z_1569", "id": "metapnc_g_1440"}, "metapnc_g_1441": {"lng": "23.71666667", "geonameId": 9962195, "name": "Staro¿ytne Ateny", "lat": "37.96666667", "wikidataId": "Q844930", "partition": null, "id": "metapnc_g_1441"}, "metapnc_g_1442": {"lng": "-3.8", "geonameId": 11609025, "name": "Devon", "lat": "50.7", "wikidataId": "Q23156", "partition": null, "id": "metapnc_g_1442"}, "metapnc_g_1443": {"lng": "23.933333333333", "geonameId": 598316, "name": "Kowno", "lat": "54.9", "wikidataId": "Q4115712", "partition": "metapnc_z_1571", "id": "metapnc_g_1443"}, "metapnc_g_1444": {"lng": "23.654166666667", "geonameId": 765068, "name": "Maziarnia", "lat": "50.980555555556", "wikidataId": "Q11771963", "partition": "metapnc_z_1571", "id": "metapnc_g_1444"}, "metapnc_g_1445": {"lng": "21.6675", "geonameId": null, "name": "Brzozowa", "lat": "50.96527778", "wikidataId": "Q2794494", "partition": "metapnc_z_1571", "id": "metapnc_g_1445"}, "metapnc_g_1446": {"lng": "21.75", "geonameId": 765921, "name": "Lubatówka", "lat": "49.58333", "wikidataId": "Q2096020", "partition": "metapnc_z_1569", "id": "metapnc_g_1446"}, "metapnc_g_1447": {"lng": "21.6333", "geonameId": 770337, "name": "Jasieniec Solecki", "lat": "51.3", "wikidataId": "Q6161514", "partition": "metapnc_z_1571", "id": "metapnc_g_1447"}, "metapnc_g_1448": {"lng": "19.044444444444", "geonameId": 3103402, "name": "Bielsko-Bia³a", "lat": "49.8225", "wikidataId": "Q106583", "partition": "metapnc_z_1569", "id": "metapnc_g_1448"}, "metapnc_g_1449": {"lng": "17.25", "geonameId": 3102909, "name": "Borek Wielkopolski", "lat": "51.916666666667", "wikidataId": "Q1005972", "partition": "metapnc_z_1570", "id": "metapnc_g_1449"}, "metapnc_g_1450": {"lng": "47.483333333333", "geonameId": 480851, "name": "Ciwilsk", "lat": "55.866666666667", "wikidataId": "Q197625", "partition": null, "id": "metapnc_g_1450"}, "metapnc_g_1451": {"lng": "28.459722222222", "geonameId": 627044, "name": "Kamarovichy", "lat": "52.474444444444", "wikidataId": "Q20664168", "partition": "metapnc_z_1571", "id": "metapnc_g_1451"}, "metapnc_g_1452": {"lng": "17.098611111111", "geonameId": 3095194, "name": "Kórnik", "lat": "52.236666666667", "wikidataId": "Q51408", "partition": "metapnc_z_1570", "id": "metapnc_g_1452"}, "metapnc_g_1453": {"lng": "27.8517", "geonameId": null, "name": "Okuniewo", "lat": "55.1962", "wikidataId": "Q28492423", "partition": "metapnc_z_1571", "id": "metapnc_g_1453"}, "metapnc_g_1454": {"lng": "20.59722222", "geonameId": 763962, "name": "Niegos³awice", "lat": "50.39027778", "wikidataId": "Q7031358", "partition": "metapnc_z_1571", "id": "metapnc_g_1454"}, "metapnc_g_1455": {"lng": "19.7", "geonameId": 3088825, "name": "P³ock", "lat": "52.55", "wikidataId": "Q104725", "partition": "metapnc_z_1571", "id": "metapnc_g_1455"}, "metapnc_g_1456": {"lng": "25.775386058654", "geonameId": 687455, "name": "Zbara¿", "lat": "49.664574286972", "wikidataId": "Q1019899", "partition": "metapnc_z_1571", "id": "metapnc_g_1456"}, "metapnc_g_1457": {"lng": "13.066666666667", "geonameId": 2852458, "name": "Poczdam", "lat": "52.4", "wikidataId": "Q1711", "partition": null, "id": "metapnc_g_1457"}, "metapnc_g_1458": {"lng": "18.65", "geonameId": 3085436, "name": "S³u¿ewo", "lat": "52.85", "wikidataId": "Q7667552", "partition": "metapnc_z_1571", "id": "metapnc_g_1458"}, "metapnc_g_1459": {"lng": "29.136666666667", "geonameId": null, "name": "Stepaszki", "lat": "48.732777777778", "wikidataId": "Q4442040", "partition": "metapnc_z_1571", "id": "metapnc_g_1459"}, "metapnc_g_1460": {"lng": "33.612380907578", "geonameId": 701075, "name": "Myrhorod", "lat": "49.963979122963", "wikidataId": "Q161961", "partition": null, "id": "metapnc_g_1460"}, "metapnc_g_1461": {"lng": "24.345555555556", "geonameId": null, "name": "Kamionka Bu¿añska", "lat": "50.108055555556", "wikidataId": "Q1020330", "partition": "metapnc_z_1569", "id": "metapnc_g_1461"}, "metapnc_g_1462": {"lng": "6.3663888888889", "geonameId": 6616202, "name": "Belmont (Doubs)", "lat": "47.220833333333", "wikidataId": "Q816097", "partition": null, "id": "metapnc_g_1462"}, "metapnc_g_1463": {"lng": "30.776111111111", "geonameId": null, "name": "Wodzianiki", "lat": "49.128888888889", "wikidataId": "Q13233343", "partition": "metapnc_z_1571", "id": "metapnc_g_1463"}, "metapnc_g_1464": {"lng": "23.2", "geonameId": 694864, "name": "Sambor", "lat": "49.516666666667", "wikidataId": "Q156593", "partition": "metapnc_z_1569", "id": "metapnc_g_1464"}, "metapnc_g_1465": {"lng": "22.233333333333", "geonameId": 772772, "name": "Dynów", "lat": "49.833333333333", "wikidataId": "Q910985", "partition": "metapnc_z_1569", "id": "metapnc_g_1465"}, "metapnc_g_1466": {"lng": "20.681944444444", "geonameId": null, "name": "Twierdza Modlin", "lat": "52.438333333333", "wikidataId": "Q47796", "partition": "metapnc_z_1571", "id": "metapnc_g_1466"}, "metapnc_g_1467": {"lng": "21.36944444", "geonameId": 775872, "name": "B³a¿kowa", "lat": "49.85", "wikidataId": "Q5005609", "partition": "metapnc_z_1569", "id": "metapnc_g_1467"}, "metapnc_g_1468": {"lng": "18.08333333", "geonameId": 3102185, "name": "Budzis³aw Koœcielny", "lat": "52.43333333", "wikidataId": "Q2218244", "partition": "metapnc_z_1571", "id": "metapnc_g_1468"}, "metapnc_g_1469": {"lng": "25.94111111", "geonameId": 623259, "name": "Paliany, Župrany Selsaviet", "lat": "54.48305556", "wikidataId": "Q20894316", "partition": "metapnc_z_1571", "id": "metapnc_g_1469"}, "metapnc_g_1470": {"lng": "18.083", "geonameId": 3096880, "name": "Kalisz", "lat": "51.757", "wikidataId": "Q52842", "partition": "metapnc_z_1571", "id": "metapnc_g_1470"}, "metapnc_g_1471": {"lng": "23.4833", "geonameId": 754987, "name": "Wólka Dobryñska", "lat": "52.0333", "wikidataId": "Q3200536", "partition": "metapnc_z_1571", "id": "metapnc_g_1471"}, "metapnc_g_1472": {"lng": "21.45", "geonameId": 7531762, "name": "Klimontów", "lat": "50.65", "wikidataId": "Q1903588", "partition": "metapnc_z_1571", "id": "metapnc_g_1472"}, "metapnc_g_1473": {"lng": "7.0997222222222", "geonameId": 11612754, "name": "Republika Federalna Niemiec (1949–1990)", "lat": "50.733888888889", "wikidataId": "Q713750", "partition": null, "id": "metapnc_g_1473"}, "metapnc_g_1474": {"lng": "23.727222222222", "geonameId": null, "name": "Klicko", "lat": "49.631111111111", "wikidataId": "Q4223470", "partition": "metapnc_z_1569", "id": "metapnc_g_1474"}, "metapnc_g_1475": {"lng": "17.785613888889", "geonameId": 3088848, "name": "Pleszew", "lat": "51.897361111111", "wikidataId": "Q555876", "partition": "metapnc_z_1570", "id": "metapnc_g_1475"}, "metapnc_g_1476": {"lng": "25.6", "geonameId": 691650, "name": "Tarnopol", "lat": "49.566666666667", "wikidataId": "Q156743", "partition": "metapnc_z_1571", "id": "metapnc_g_1476"}, "metapnc_g_1477": {"lng": "23.6167", "geonameId": null, "name": "Kamionka Wo³oska", "lat": "50.2333", "wikidataId": "Q680736", "partition": "metapnc_z_1571", "id": "metapnc_g_1477"}, "metapnc_g_1478": {"lng": "22.283333333333", "geonameId": 759412, "name": "Siedlce", "lat": "52.183333333333", "wikidataId": "Q319813", "partition": "metapnc_z_1571", "id": "metapnc_g_1478"}, "metapnc_g_1479": {"lng": "21.4357", "geonameId": null, "name": "Wola Siennieñska", "lat": "51.0762", "wikidataId": "Q75041707", "partition": "metapnc_z_1571", "id": "metapnc_g_1479"}, "metapnc_g_1480": {"lng": "25.733333333333", "geonameId": 643645, "name": "Orimattila", "lat": "60.804166666667", "wikidataId": "Q939701", "partition": null, "id": "metapnc_g_1480"}, "metapnc_g_1481": {"lng": "8.34", "geonameId": 7285324, "name": "Bremgarten", "lat": "47.352777777778", "wikidataId": "Q64139", "partition": null, "id": "metapnc_g_1481"}, "metapnc_g_1482": {"lng": "22.9225", "geonameId": null, "name": "Mi¿yniec", "lat": "49.676111111111", "wikidataId": "Q4292881", "partition": "metapnc_z_1569", "id": "metapnc_g_1482"}, "metapnc_g_1483": {"lng": "22.92861111111111", "geonameId": 7530941, "name": "Suwa³ki", "lat": "54.09888888888889", "wikidataId": "Q236083", "partition": "metapnc_z_1571", "id": "metapnc_g_1483"}, "metapnc_g_1484": {"lng": "23.656944444444", "geonameId": 629634, "name": "Brzeœæ", "lat": "52.084722222222", "wikidataId": "Q140147", "partition": "metapnc_z_1571", "id": "metapnc_g_1484"}, "metapnc_g_1485": {"lng": "22.15", "geonameId": 754714, "name": "Wronów", "lat": "51.1667", "wikidataId": "Q8038684", "partition": "metapnc_z_1571", "id": "metapnc_g_1485"}, "metapnc_g_1486": {"lng": "24.583691666667", "geonameId": null, "name": "Do³he", "lat": "52.58015", "wikidataId": "Q13133293", "partition": "metapnc_z_1571", "id": "metapnc_g_1486"}, "metapnc_g_1487": {"lng": "26.5175", "geonameId": null, "name": "Biele¿yñce", "lat": "49.918333333333", "wikidataId": "Q4084307", "partition": "metapnc_z_1571", "id": "metapnc_g_1487"}, "metapnc_g_1488": {"lng": "23.302777777778", "geonameId": null, "name": "Królin", "lat": "49.779722222222", "wikidataId": "Q4233792", "partition": "metapnc_z_1569", "id": "metapnc_g_1488"}, "metapnc_g_1489": {"lng": "24.710555555556", "geonameId": 707471, "name": "Iwano-Frankiwsk", "lat": "48.922777777778", "wikidataId": "Q156726", "partition": "metapnc_z_1569", "id": "metapnc_g_1489"}, "metapnc_g_1490": {"lng": "20.445", "geonameId": 756904, "name": "Tokarnia", "lat": "50.76611", "wikidataId": "Q1965388", "partition": "metapnc_z_1571", "id": "metapnc_g_1490"}, "metapnc_g_1491": {"lng": "20.429722222222", "geonameId": 6565267, "name": "Kroœcienko nad Dunajcem", "lat": "49.4375", "wikidataId": "Q2586135", "partition": "metapnc_z_1569", "id": "metapnc_g_1491"}, "metapnc_g_1492": {"lng": "23.5167", "geonameId": 763853, "name": "Niewirków", "lat": "50.7", "wikidataId": "Q7032058", "partition": "metapnc_z_1571", "id": "metapnc_g_1492"}, "metapnc_g_1493": {"lng": "23.978888888889", "geonameId": 700568, "name": "Miko³ajów", "lat": "49.524722222222", "wikidataId": "Q58475", "partition": "metapnc_z_1569", "id": "metapnc_g_1493"}, "metapnc_g_1494": {"lng": "28.8181", "geonameId": null, "name": "Ka³u¿yce", "lat": "53.9833", "wikidataId": "Q6398138", "partition": "metapnc_z_1571", "id": "metapnc_g_1494"}, "metapnc_g_1495": {"lng": "23.85", "geonameId": 692372, "name": "Stryj", "lat": "49.25", "wikidataId": "Q158923", "partition": "metapnc_z_1569", "id": "metapnc_g_1495"}, "metapnc_g_1496": {"lng": "28.192222222222", "geonameId": null, "name": "Sainka", "lat": "48.548055555556", "wikidataId": "Q4405135", "partition": "metapnc_z_1571", "id": "metapnc_g_1496"}, "metapnc_g_1497": {"lng": "18.08333", "geonameId": null, "name": "Russów", "lat": "51.85", "wikidataId": "Q1926714", "partition": "metapnc_z_1571", "id": "metapnc_g_1497"}, "metapnc_g_1498": {"lng": "20.7", "geonameId": 753541, "name": "Zbo¿enna", "lat": "51.3833", "wikidataId": "Q8067829", "partition": "metapnc_z_1571", "id": "metapnc_g_1498"}, "metapnc_g_1499": {"lng": "18.66388889", "geonameId": 3089114, "name": "Pielgrzymowice", "lat": "49.90638889", "wikidataId": "Q7191656", "partition": "metapnc_z_1569", "id": "metapnc_g_1499"}, "metapnc_g_1500": {"lng": "27.440555555556", "geonameId": null, "name": "Kurczyce", "lat": "50.757777777778", "wikidataId": "Q4249049", "partition": "metapnc_z_1571", "id": "metapnc_g_1500"}, "metapnc_g_1501": {"lng": "20.6274", "geonameId": null, "name": "Soko³ówek", "lat": "52.8289", "wikidataId": "Q9339235", "partition": "metapnc_z_1571", "id": "metapnc_g_1501"}, "metapnc_g_1502": {"lng": "41.433333333333", "geonameId": 484646, "name": "Tambow", "lat": "52.716666666667", "wikidataId": "Q3544", "partition": null, "id": "metapnc_g_1502"}, "metapnc_g_1503": {"lng": "18.4543", "geonameId": null, "name": "Rzeczyca", "lat": "52.5675", "wikidataId": "Q7385691", "partition": "metapnc_z_1570", "id": "metapnc_g_1503"}, "metapnc_g_1504": {"lng": "20.83333333", "geonameId": 8643085, "name": "Bronisze", "lat": "52.2", "wikidataId": "Q4973923", "partition": "metapnc_z_1571", "id": "metapnc_g_1504"}, "metapnc_g_1505": {"lng": "20.97694444", "geonameId": 759421, "name": "Sieczków", "lat": "50.52222222", "wikidataId": "Q7509584", "partition": "metapnc_z_1571", "id": "metapnc_g_1505"}, "metapnc_g_1506": {"lng": "17.333888888889", "geonameId": 3090436, "name": "Nysa", "lat": "50.471388888889", "wikidataId": "Q815721", "partition": null, "id": "metapnc_g_1506"}, "metapnc_g_1507": {"lng": "17.0125", "geonameId": 3098625, "name": "Gostyñ", "lat": "51.879166666667", "wikidataId": "Q422286", "partition": "metapnc_z_1570", "id": "metapnc_g_1507"}, "metapnc_g_1508": {"lng": "18.8362", "geonameId": null, "name": "Radoszewice", "lat": "51.2492", "wikidataId": "Q371866", "partition": "metapnc_z_1571", "id": "metapnc_g_1508"}, "metapnc_g_1509": {"lng": "20.631944444444", "geonameId": 769250, "name": "Kielce", "lat": "50.8725", "wikidataId": "Q102317", "partition": "metapnc_z_1571", "id": "metapnc_g_1509"}, "metapnc_g_1510": {"lng": "27.7025", "geonameId": null, "name": "Kotiu¿any", "lat": "48.773888888889", "wikidataId": "Q373864", "partition": "metapnc_z_1571", "id": "metapnc_g_1510"}, "metapnc_g_1511": {"lng": "24.3903", "geonameId": 8077171, "name": "Milkowszczyzna", "lat": "53.5597", "wikidataId": "Q653342", "partition": "metapnc_z_1571", "id": "metapnc_g_1511"}, "metapnc_g_1512": {"lng": "27.721111111111", "geonameId": 457776, "name": "Lucyn", "lat": "56.543888888889", "wikidataId": "Q744259", "partition": "metapnc_z_1571", "id": "metapnc_g_1512"}, "metapnc_g_1513": {"lng": "21.75", "geonameId": 759603, "name": "Sandomierz", "lat": "50.683333333333", "wikidataId": "Q193177", "partition": "metapnc_z_1571", "id": "metapnc_g_1513"}, "metapnc_g_1514": {"lng": "20.838333333333", "geonameId": 757996, "name": "Strzegocin", "lat": "52.687777777778", "wikidataId": "Q9347088", "partition": "metapnc_z_1571", "id": "metapnc_g_1514"}, "metapnc_g_1515": {"lng": "22.24222222222222", "geonameId": 753895, "name": "Zambrów", "lat": "52.985277777777775", "wikidataId": "Q145719", "partition": "metapnc_z_1571", "id": "metapnc_g_1515"}, "metapnc_g_1516": {"lng": "20.283333333333", "geonameId": 763111, "name": "Opoczno", "lat": "51.383333333333", "wikidataId": "Q994271", "partition": "metapnc_z_1571", "id": "metapnc_g_1516"}, "metapnc_g_1517": {"lng": "18.64777778", "geonameId": null, "name": "Smardzew", "lat": "51.59805556", "wikidataId": "Q7543783", "partition": "metapnc_z_1571", "id": "metapnc_g_1517"}, "metapnc_g_1518": {"lng": "27.594166666667", "geonameId": 619204, "name": "Zamoœæ", "lat": "53.209166666667", "wikidataId": "Q21650205", "partition": "metapnc_z_1571", "id": "metapnc_g_1518"}, "metapnc_g_1519": {"lng": "23.93333333333", "geonameId": null, "name": "Gubernia kowieñska", "lat": "54.9", "wikidataId": "Q1540300", "partition": "metapnc_z_1571", "id": "metapnc_g_1519"}, "metapnc_g_1520": {"lng": "44727", "geonameId": 7285902, "name": "Genewa", "lat": "46.2", "wikidataId": "Q71", "partition": null, "id": "metapnc_g_1520"}, "metapnc_g_1521": {"lng": "22.93944", "geonameId": 765634, "name": "£yso³aje", "lat": "51.19167", "wikidataId": "Q3261144", "partition": "metapnc_z_1571", "id": "metapnc_g_1521"}, "metapnc_g_1522": {"lng": "23.8625", "geonameId": 773706, "name": "Czortowice", "lat": "50.86111111", "wikidataId": "Q2264738", "partition": "metapnc_z_1571", "id": "metapnc_g_1522"}, "metapnc_g_1523": {"lng": "23.883333333333", "geonameId": 770966, "name": "Hrubieszów", "lat": "50.816666666667", "wikidataId": "Q924103", "partition": "metapnc_z_1571", "id": "metapnc_g_1523"}, "metapnc_g_1524": {"lng": "20.68305556", "geonameId": 773033, "name": "Domaszowice", "lat": "50.86583333", "wikidataId": "Q5289946", "partition": "metapnc_z_1571", "id": "metapnc_g_1524"}, "metapnc_g_1525": {"lng": "18.3167", "geonameId": 3093125, "name": "£ojewo", "lat": "52.7333", "wikidataId": "Q1948388", "partition": "metapnc_z_1570", "id": "metapnc_g_1525"}, "metapnc_g_1526": {"lng": "19.166666666667", "geonameId": 3093268, "name": "Lipno", "lat": "52.85", "wikidataId": "Q324922", "partition": "metapnc_z_1571", "id": "metapnc_g_1526"}, "metapnc_g_1527": {"lng": "24.139444444444", "geonameId": 690155, "name": "Mosty Wielkie", "lat": "50.24", "wikidataId": "Q912378", "partition": "metapnc_z_1569", "id": "metapnc_g_1527"}, "metapnc_g_1528": {"lng": "19.61667", "geonameId": 3095967, "name": "Kobiele Wielkie", "lat": "51.03333", "wikidataId": "Q2248969", "partition": "metapnc_z_1571", "id": "metapnc_g_1528"}, "metapnc_g_1529": {"lng": "24.887222222222", "geonameId": null, "name": "Pieniuha", "lat": "53.01", "wikidataId": "Q6528438", "partition": "metapnc_z_1571", "id": "metapnc_g_1529"}, "metapnc_g_1530": {"lng": "22.28333", "geonameId": 776458, "name": "Baligród", "lat": "49.35", "wikidataId": "Q3496277", "partition": "metapnc_z_1569", "id": "metapnc_g_1530"}, "metapnc_g_1531": {"lng": "25.625", "geonameId": 599868, "name": "Dziewieniszki", "lat": "54.194444444444", "wikidataId": "Q1224305", "partition": "metapnc_z_1571", "id": "metapnc_g_1531"}, "metapnc_g_1532": {"lng": "20.69112", "geonameId": 776384, "name": "Barczewo", "lat": "53.83055", "wikidataId": "Q807991", "partition": "metapnc_z_1570", "id": "metapnc_g_1532"}, "metapnc_g_1533": {"lng": "28.046666666667", "geonameId": 630336, "name": "Bia³oruœ", "lat": "53.528333333333", "wikidataId": "Q184", "partition": "metapnc_z_1571", "id": "metapnc_g_1533"}, "metapnc_g_1534": {"lng": "27.745555555556", "geonameId": null, "name": "Mi¿lissia", "lat": "49.045555555556", "wikidataId": "Q3620738", "partition": "metapnc_z_1571", "id": "metapnc_g_1534"}, "metapnc_g_1535": {"lng": "18.7", "geonameId": 3088421, "name": "Polonisz", "lat": "52.35", "wikidataId": "Q7225949", "partition": "metapnc_z_1571", "id": "metapnc_g_1535"}, "metapnc_g_1536": {"lng": "22.1333", "geonameId": 755197, "name": "Wola Okrzejska", "lat": "51.75", "wikidataId": "Q2750458", "partition": "metapnc_z_1571", "id": "metapnc_g_1536"}, "metapnc_g_1537": {"lng": "21.4333", "geonameId": 754947, "name": "Wólka Koz³owska", "lat": "52.45", "wikidataId": "Q8040883", "partition": "metapnc_z_1571", "id": "metapnc_g_1537"}, "metapnc_g_1538": {"lng": "20.8", "geonameId": 775442, "name": "Borusowa", "lat": "50.283333333333", "wikidataId": "Q4946826", "partition": "metapnc_z_1569", "id": "metapnc_g_1538"}, "metapnc_g_1539": {"lng": "27.925833333333", "geonameId": null, "name": "Paszeñki", "lat": "55.865", "wikidataId": "Q19850497", "partition": "metapnc_z_1571", "id": "metapnc_g_1539"}, "metapnc_g_1540": {"lng": "17.016666666667", "geonameId": 3085056, "name": "Œrem", "lat": "52.083333333333", "wikidataId": "Q387260", "partition": "metapnc_z_1570", "id": "metapnc_g_1540"}, "metapnc_g_1541": {"lng": "22.16666667", "geonameId": 758708, "name": "Sobieszyn", "lat": "51.6", "wikidataId": "Q7550058", "partition": "metapnc_z_1571", "id": "metapnc_g_1541"}, "metapnc_g_1542": {"lng": "19.11666667", "geonameId": 3083788, "name": "Szczerców", "lat": "51.33333333", "wikidataId": "Q986114", "partition": "metapnc_z_1571", "id": "metapnc_g_1542"}, "metapnc_g_1543": {"lng": "30.9125", "geonameId": 712312, "name": "Berezówka", "lat": "47.203888888889", "wikidataId": "Q819103", "partition": null, "id": "metapnc_g_1543"}, "metapnc_g_1544": {"lng": "24.856111111111", "geonameId": null, "name": "Nabere¿ne", "lat": "49.248888888889", "wikidataId": "Q4311156", "partition": "metapnc_z_1569", "id": "metapnc_g_1544"}, "metapnc_g_1545": {"lng": "17.15", "geonameId": null, "name": "Zalesie", "lat": "51.8833", "wikidataId": "Q8065383", "partition": "metapnc_z_1570", "id": "metapnc_g_1545"}, "metapnc_g_1546": {"lng": "20.433333333333", "geonameId": 775758, "name": "Bochnia", "lat": "49.983333333333", "wikidataId": "Q815903", "partition": "metapnc_z_1569", "id": "metapnc_g_1546"}, "metapnc_g_1547": {"lng": "25.729111010118", "geonameId": 691444, "name": "T³uste", "lat": "48.837434629933", "wikidataId": "Q1026945", "partition": "metapnc_z_1569", "id": "metapnc_g_1547"}, "metapnc_g_1548": {"lng": "19.6333", "geonameId": null, "name": "Gos³awice", "lat": "52.05", "wikidataId": "Q5587647", "partition": "metapnc_z_1571", "id": "metapnc_g_1548"}, "metapnc_g_1549": {"lng": "20.516666666667", "geonameId": 554234, "name": "Królewiec", "lat": "54.716666666667", "wikidataId": "Q4120832", "partition": null, "id": "metapnc_g_1549"}, "metapnc_g_1550": {"lng": "32.6", "geonameId": null, "name": "Gubernia chersoñska", "lat": "46.633333333333", "wikidataId": "Q1540289", "partition": null, "id": "metapnc_g_1550"}, "metapnc_g_1551": {"lng": "19.4333", "geonameId": 3084280, "name": "Suchcice", "lat": "51.4167", "wikidataId": "Q7632882", "partition": "metapnc_z_1571", "id": "metapnc_g_1551"}, "metapnc_g_1552": {"lng": "-1.8504", "geonameId": 2635973, "name": "Thornton", "lat": "53.7898", "wikidataId": "Q2406502", "partition": null, "id": "metapnc_g_1552"}, "metapnc_g_1553": {"lng": "21.966666666667", "geonameId": 758157, "name": "Stoczek £ukowski", "lat": "51.966666666667", "wikidataId": "Q219106", "partition": "metapnc_z_1571", "id": "metapnc_g_1553"}, "metapnc_g_1554": {"lng": "28.657777777778", "geonameId": 686967, "name": "¯ytomierz", "lat": "50.254444444444", "wikidataId": "Q156713", "partition": "metapnc_z_1571", "id": "metapnc_g_1554"}, "metapnc_g_1555": {"lng": "19.97888889", "geonameId": 3092742, "name": "LudŸmierz", "lat": "49.46944444", "wikidataId": "Q1875493", "partition": "metapnc_z_1569", "id": "metapnc_g_1555"}, "metapnc_g_1556": {"lng": "24.18712", "geonameId": null, "name": "Ma³e Biskupice", "lat": "50.756591", "wikidataId": "Q68892911", "partition": "metapnc_z_1571", "id": "metapnc_g_1556"}, "metapnc_g_1557": {"lng": "17.690555555556", "geonameId": null, "name": "Bo¿ejewiczki", "lat": "52.825555555556", "wikidataId": "Q4953017", "partition": "metapnc_z_1570", "id": "metapnc_g_1557"}, "metapnc_g_1558": {"lng": "20.1", "geonameId": 7533104, "name": "Dobczyce", "lat": "49.9", "wikidataId": "Q1003279", "partition": "metapnc_z_1569", "id": "metapnc_g_1558"}, "metapnc_g_1559": {"lng": "18.1667", "geonameId": 3094970, "name": "Kowalewek", "lat": "52.1667", "wikidataId": "Q6434943", "partition": "metapnc_z_1571", "id": "metapnc_g_1559"}, "metapnc_g_1560": {"lng": "22.38333", "geonameId": 755502, "name": "Wizna", "lat": "53.2", "wikidataId": "Q2237742", "partition": "metapnc_z_1571", "id": "metapnc_g_1560"}, "metapnc_g_1561": {"lng": "15.401111111111", "geonameId": 7871818, "name": "Loosdorf", "lat": "48.200555555556", "wikidataId": "Q669680", "partition": null, "id": "metapnc_g_1561"}, "metapnc_g_1562": {"lng": "23.0625", "geonameId": 768810, "name": "Kolano", "lat": "51.671388888889", "wikidataId": "Q4196415", "partition": "metapnc_z_1571", "id": "metapnc_g_1562"}, "metapnc_g_1563": {"lng": "20.366666666667", "geonameId": 764634, "name": "M³awa", "lat": "53.116666666667", "wikidataId": "Q983868", "partition": "metapnc_z_1571", "id": "metapnc_g_1563"}, "metapnc_g_1564": {"lng": "22.816388888889", "geonameId": 760727, "name": "Radymno", "lat": "49.95", "wikidataId": "Q336217", "partition": "metapnc_z_1569", "id": "metapnc_g_1564"}, "metapnc_g_1565": {"lng": "25.401111111111", "geonameId": null, "name": "Podhajce", "lat": "50.716666666667", "wikidataId": "Q4367267", "partition": "metapnc_z_1571", "id": "metapnc_g_1565"}, "metapnc_g_1566": {"lng": "30.216666666667", "geonameId": 690688, "name": "Humañ", "lat": "48.75", "wikidataId": "Q208499", "partition": "metapnc_z_1571", "id": "metapnc_g_1566"}, "metapnc_g_1567": {"lng": "21.56666667", "geonameId": 772139, "name": "Glinik", "lat": "49.96666667", "wikidataId": "Q5569686", "partition": "metapnc_z_1569", "id": "metapnc_g_1567"}, "metapnc_g_1568": {"lng": "28.606111111111", "geonameId": null, "name": "Wyszpol", "lat": "50.369166666667", "wikidataId": "Q4130050", "partition": "metapnc_z_1571", "id": "metapnc_g_1568"}}